0 STRV 1A
1 23125U 94034B   13279.21274756  .00005847  00000-0  84164-3 0  2789
2 23125 007.2746 288.7563 6734369 223.4418 057.7170 03.00949697185213
0 STRV 1A
1 23125U 94034B   13281.53467118  .00005486  00000-0  81211-3 0  2793
2 23125 007.2744 287.4190 6733798 226.0858 053.4476 03.00974209185281
0 STRV 1A
1 23125U 94034B   13283.52527994  .00004686  00000-0  71745-3 0  2807
2 23125 007.2717 286.2498 6733605 228.3794 050.3351 03.00991498185344
0 STRV 1A
1 23125U 94034B   13283.52532396  .00008820  00000-0  15071-2 0  2813
2 23125 007.2742 286.2461 6730115 228.3948 050.3528 03.00994130185348
0 STRV 1A
1 23125U 94034B   13285.51593617  .00005100  00000-0  79259-3 0  2814
2 23125 007.2710 285.0949 6733456 230.6608 047.4367 03.01014125185404
0 STRV 1A
1 23125U 94034B   13288.17022922  .00005535  00000-0  91717-3 0  2821
2 23125 007.2726 283.5844 6731441 233.6770 043.8864 03.01045894185480
0 STRV 1A
1 23125U 94034B   13290.16096409  .00006207  00000-0  10356-2 0  2831
2 23125 007.2709 282.4147 6730543 235.9731 041.4635 03.01072579185546
0 STRV 1A
1 23125U 94034B   13293.14705426  .00005924  00000-0  97625-3 0  2849
2 23125 007.2668 280.6637 6730221 239.4186 038.1467 03.01108384185630
